{
    "links": {
        "self": "http://www.neowsapp.com/rest/v1/neo/3670398?api_key=iIulBulltgU6a56xZRHN4H3l9WmuAYTsLGpBGhQ2"
    },
    "id": "3670398",
    "neo_reference_id": "3670398",
    "name": "(2014 JK15)",
    "designation": "2014 JK15",
    "nasa_jpl_url": "http://ssd.jpl.nasa.gov/sbdb.cgi?sstr=3670398",
    "absolute_magnitude_h": 21.1,
    "estimated_diameter": {
        "kilometers": {
            "estimated_diameter_min": 0.160160338,
            "estimated_diameter_max": 0.358129403
        },
        "meters": {
            "estimated_diameter_min": 160.1603379786,
            "estimated_diameter_max": 358.1294030194
        },
        "miles": {
            "estimated_diameter_min": 0.0995189894,
            "estimated_diameter_max": 0.2225312253
        },
        "feet": {
            "estimated_diameter_min": 525.4604432536,
            "estimated_diameter_max": 1174.9652706022
        }
    },
    "is_potentially_hazardous_asteroid": false,
    "close_approach_data": [
        {
            "close_approach_date": "2014-04-30",
            "close_approach_date_full": "2014-Apr-30 09:12",
            "epoch_date_close_approach": 1398849120000,
            "relative_velocity": {
                "kilometers_per_second": "8.8541445322",
                "kilometers_per_hour": "31874.9203159141",
                "miles_per_hour": "19805.8359040745"
            },
            "miss_distance": {
                "astronomical": "0.1783789685",
                "lunar": "69.3894187465",
                "kilometers": "26685113.740397095",
                "miles": "16581360.790366111"
            },
            "orbiting_body": "Earth"
        },
        {
            "close_approach_date": "2037-05-19",
            "close_approach_date_full": "2037-May-19 05:41",
            "epoch_date_close_approach": 2126324460000,
            "relative_velocity": {
                "kilometers_per_second": "17.2046231686",
                "kilometers_per_hour": "61936.643406794",
                "miles_per_hour": "38485.0215657382"
            },
            "miss_distance": {
                "astronomical": "0.4803461609",
                "lunar": "186.8546565901",
                "kilometers": "71858762.533317283",
                "miles": "44650964.5454651854"
            },
            "orbiting_body": "Earth"
        },
        {
            "close_approach_date": "2182-05-10",
            "close_approach_date_full": "2182-May-10 13:58",
            "epoch_date_close_approach": 6701320680000,
            "relative_velocity": {
                "kilometers_per_second": "11.6057370908",
                "kilometers_per_hour": "41780.6535267882",
                "miles_per_hour": "25960.8732983535"
            },
            "miss_distance": {
                "astronomical": "0.2690683583",
                "lunar": "104.6675913787",
                "kilometers": "40252053.286076821",
                "miles": "25011466.1148732898"
            },
            "orbiting_body": "Earth"
        }
    ],
    "orbital_data": {
        "orbit_id": "18",
        "orbit_determination_date": "2017-04-06 08:40:39",
        "first_observation_date": "2014-05-04",
        "last_observation_date": "2014-06-03",
        "data_arc_in_days": 30,
        "observations_used": 116,
        "orbit_uncertainty": "6",
        "minimum_orbit_intersection": ".133421",
        "jupiter_tisserand_invariant": "3.468",
        "epoch_osculation": "2459000.5",
        "eccentricity": ".4939246220694446",
        "semi_major_axis": "2.215252077283185",
        "inclination": "9.433261197642592",
        "ascending_node_longitude": "228.4352960146023",
        "orbital_period": "1204.295755176031",
        "perihelion_distance": "1.121084532222536",
        "perihelion_argument": "331.4534529483131",
        "aphelion_distance": "3.309419622343835",
        "perihelion_time": "2459173.119130658536",
        "mean_anomaly": "308.398981919529",
        "mean_motion": ".2989298919744006",
        "equinox": "J2000",
        "orbit_class": {
            "orbit_class_type": "AMO",
            "orbit_class_description": "Near-Earth asteroid orbits similar to that of 1221 Amor",
            "orbit_class_range": "1.017 AU < q (perihelion) < 1.3 AU"
        }
    },
    "is_sentry_object": false
}